[{"OBJECT_NAME":"SCS-01 J","OBJECT_ID":"2025-100J","EPOCH":"2026-03-09T22:31:25.904064","MEAN_MOTION":15.31338011,"ECCENTRICITY":0.00063909,"INCLINATION":97.3693,"RA_OF_ASC_NODE":145.4824,"ARG_OF_PERICENTER":272.025,"MEAN_ANOMALY":88.026,"EPHEMERIS_TYPE":0,"CLASSIFICATION_TYPE":"U","NORAD_CAT_ID":63990,"ELEMENT_SET_NO":999,"REV_AT_EPOCH":4563,"BSTAR":0.0011832888,"MEAN_MOTION_DOT":0.00035886,"MEAN_MOTION_DDOT":0},{"OBJECT_NAME":"STARLINK-35445","OBJECT_ID":"2025-223AC","EPOCH":"2026-03-09T21:15:27.598176","MEAN_MOTION":15.30207832,"ECCENTRICITY":9.957e-5,"INCLINATION":53.1593,"RA_OF_ASC_NODE":293.4007,"ARG_OF_PERICENTER":161.3789,"MEAN_ANOMALY":198.7248,"EPHEMERIS_TYPE":0,"CLASSIFICATION_TYPE":"U","NORAD_CAT_ID":65880,"ELEMENT_SET_NO":999,"REV_AT_EPOCH":2423,"BSTAR":0.00087466974,"MEAN_MOTION_DOT":0.00025642,"MEAN_MOTION_DDOT":0}]
